COSMOS 1933             
1 18958U 88020A   26016.77191103  .00003368  00000+0  16672-3 0  9997
2 18958  82.5153 302.2602 0005520  38.7756 321.3873 15.17463506 42359
SL-3 R/B                
1 19046U 88032B   26016.90813211  .00005007  00000+0  23911-3 0  9991
2 19046  97.5110   0.4019 0028131  56.8028 303.5898 15.19155357 44245
SL-16 R/B               
1 19120U 88039B   26016.76733331  .00000242  00000+0  13720-3 0  9992
2 19120  71.0136 178.3359 0019863  56.2340 304.0674 14.19606240951019
COSMOS 1953             
1 19210U 88050A   26016.95560446  .00005879  00000+0  21773-3 0  9999
2 19210  82.5063 210.2314 0010730 311.4011  48.6305 15.27397397 29880
SL-8 R/B                
1 19257U 88053B   26016.93863086  .00000092  00000+0  38419-4 0  9995
2 19257  74.0453 207.8465 0019432  39.0772  69.6755 14.38880499969150
COSMOS 1975             
1 19573U 88093A   26016.91056988  .00006595  00000+0  24702-3 0  9996
2 19573  82.5202 169.6040 0011504 358.7608   1.3600 15.27031890 11503
SL-14 R/B               
1 19574U 88093B   26016.95575829  .00000395  00000+0  42704-4 0  9996
2 19574  82.5307  90.6196 0020061 205.5031 327.3131 14.85593172993353
SL-16 R/B               
1 19650U 88102B   26016.91749573  .00000285  00000+0  16827-3 0  9991
2 19650  70.9988 260.4281 0011988  89.8321 270.4176 14.16144947919563
INTERCOSMOS 24          
1 20261U 89080A   26016.69756298  .00000269  00000+0  70914-4 0  9994
2 20261  82.6079 138.2293 1188956  53.4704 317.0048 12.59487793660251
SL-14 R/B               
1 20262U 89080C   26016.94651996  .00000219  00000+0  65787-4 0  9999
2 20262  82.5915 206.4118 1229704 303.1098  45.7741 12.50439387653683
DELTA 1 R/B             
1 20323U 89089B   26016.61198864  .00000283  00000+0  79013-4 0  9998
2 20323  97.0734 232.3206 0067642 287.7196  71.6627 14.50606907888185
ARIANE 40 R/B           
1 20443U 90005H   26016.90305781  .00000213  00000+0  81211-4 0  9997
2 20443  98.3189  79.0789 0010076   7.4631 352.6705 14.39827075885351
