CCSDS_OMM_VERS = 2.0
CREATION_DATE  = 
ORIGINATOR     = 

OBJECT_NAME    = COSMOS 1933
OBJECT_ID      = 1988-020A
CENTER_NAME    = EARTH
REF_FRAME      = TEME
TIME_SYSTEM    = UTC
MEAN_ELEMENT_THEORY = SGP/SGP4

EPOCH          = 2026-01-16T18:31:33.112992
MEAN_MOTION    = 15.17463506
ECCENTRICITY   = .000552
INCLINATION    = 82.5153
RA_OF_ASC_NODE = 302.2602
ARG_OF_PERICENTER = 38.7756
MEAN_ANOMALY   = 321.3873

EPHEMERIS_TYPE = 0
CLASSIFICATION_TYPE = U
NORAD_CAT_ID   = 18958
ELEMENT_SET_NO = 999
REV_AT_EPOCH   = 4235
BSTAR          = .16672058E-3
MEAN_MOTION_DOT = .3368E-4
MEAN_MOTION_DDOT = 0

CCSDS_OMM_VERS = 2.0
CREATION_DATE  = 
ORIGINATOR     = 

OBJECT_NAME    = SL-3 R/B
OBJECT_ID      = 1988-032B
CENTER_NAME    = EARTH
REF_FRAME      = TEME
TIME_SYSTEM    = UTC
MEAN_ELEMENT_THEORY = SGP/SGP4

EPOCH          = 2026-01-16T21:47:42.614304
MEAN_MOTION    = 15.19155357
ECCENTRICITY   = .00281319
INCLINATION    = 97.5110
RA_OF_ASC_NODE = 0.4019
ARG_OF_PERICENTER = 56.8028
MEAN_ANOMALY   = 303.5898

EPHEMERIS_TYPE = 0
CLASSIFICATION_TYPE = U
NORAD_CAT_ID   = 19046
ELEMENT_SET_NO = 999
REV_AT_EPOCH   = 4424
BSTAR          = .23910927E-3
MEAN_MOTION_DOT = .5007E-4
MEAN_MOTION_DDOT = 0

CCSDS_OMM_VERS = 2.0
CREATION_DATE  = 
ORIGINATOR     = 

OBJECT_NAME    = SL-16 R/B
OBJECT_ID      = 1988-039B
CENTER_NAME    = EARTH
REF_FRAME      = TEME
TIME_SYSTEM    = UTC
MEAN_ELEMENT_THEORY = SGP/SGP4

EPOCH          = 2026-01-16T18:24:57.597984
MEAN_MOTION    = 14.19606240
ECCENTRICITY   = .00198634
INCLINATION    = 71.0136
RA_OF_ASC_NODE = 178.3359
ARG_OF_PERICENTER = 56.2340
MEAN_ANOMALY   = 304.0674

EPHEMERIS_TYPE = 0
CLASSIFICATION_TYPE = U
NORAD_CAT_ID   = 19120
ELEMENT_SET_NO = 999
REV_AT_EPOCH   = 95101
BSTAR          = .13720103E-3
MEAN_MOTION_DOT = .242E-5
MEAN_MOTION_DDOT = 0

CCSDS_OMM_VERS = 2.0
CREATION_DATE  = 
ORIGINATOR     = 

OBJECT_NAME    = COSMOS 1953
OBJECT_ID      = 1988-050A
CENTER_NAME    = EARTH
REF_FRAME      = TEME
TIME_SYSTEM    = UTC
MEAN_ELEMENT_THEORY = SGP/SGP4

EPOCH          = 2026-01-16T22:56:04.225344
MEAN_MOTION    = 15.27397397
ECCENTRICITY   = .00107307
INCLINATION    = 82.5063
RA_OF_ASC_NODE = 210.2314
ARG_OF_PERICENTER = 311.4011
MEAN_ANOMALY   = 48.6305

EPHEMERIS_TYPE = 0
CLASSIFICATION_TYPE = U
NORAD_CAT_ID   = 19210
ELEMENT_SET_NO = 999
REV_AT_EPOCH   = 2988
BSTAR          = .21772924E-3
MEAN_MOTION_DOT = .5879E-4
MEAN_MOTION_DDOT = 0

CCSDS_OMM_VERS = 2.0
CREATION_DATE  = 
ORIGINATOR     = 

OBJECT_NAME    = SL-8 R/B
OBJECT_ID      = 1988-053B
CENTER_NAME    = EARTH
REF_FRAME      = TEME
TIME_SYSTEM    = UTC
MEAN_ELEMENT_THEORY = SGP/SGP4

EPOCH          = 2026-01-16T22:31:37.706304
MEAN_MOTION    = 14.38880499
ECCENTRICITY   = .00194322
INCLINATION    = 74.0453
RA_OF_ASC_NODE = 207.8465
ARG_OF_PERICENTER = 39.0772
MEAN_ANOMALY   = 69.6755

EPHEMERIS_TYPE = 0
CLASSIFICATION_TYPE = U
NORAD_CAT_ID   = 19257
ELEMENT_SET_NO = 999
REV_AT_EPOCH   = 96915
BSTAR          = .38419278E-4
MEAN_MOTION_DOT = .92E-6
MEAN_MOTION_DDOT = 0

CCSDS_OMM_VERS = 2.0
CREATION_DATE  = 
ORIGINATOR     = 

OBJECT_NAME    = COSMOS 1975
OBJECT_ID      = 1988-093A
CENTER_NAME    = EARTH
REF_FRAME      = TEME
TIME_SYSTEM    = UTC
MEAN_ELEMENT_THEORY = SGP/SGP4

EPOCH          = 2026-01-16T21:51:13.237632
MEAN_MOTION    = 15.27031890
ECCENTRICITY   = .00115049
INCLINATION    = 82.5202
RA_OF_ASC_NODE = 169.6040
ARG_OF_PERICENTER = 358.7608
MEAN_ANOMALY   = 1.3600

EPHEMERIS_TYPE = 0
CLASSIFICATION_TYPE = U
NORAD_CAT_ID   = 19573
ELEMENT_SET_NO = 999
REV_AT_EPOCH   = 1150
BSTAR          = .24702085E-3
MEAN_MOTION_DOT = .6595E-4
MEAN_MOTION_DDOT = 0

CCSDS_OMM_VERS = 2.0
CREATION_DATE  = 
ORIGINATOR     = 

OBJECT_NAME    = SL-14 R/B
OBJECT_ID      = 1988-093B
CENTER_NAME    = EARTH
REF_FRAME      = TEME
TIME_SYSTEM    = UTC
MEAN_ELEMENT_THEORY = SGP/SGP4

EPOCH          = 2026-01-16T22:56:17.516256
MEAN_MOTION    = 14.85593172
ECCENTRICITY   = .00200619
INCLINATION    = 82.5307
RA_OF_ASC_NODE = 90.6196
ARG_OF_PERICENTER = 205.5031
MEAN_ANOMALY   = 327.3131

EPHEMERIS_TYPE = 0
CLASSIFICATION_TYPE = U
NORAD_CAT_ID   = 19574
ELEMENT_SET_NO = 999
REV_AT_EPOCH   = 99335
BSTAR          = .42703935E-4
MEAN_MOTION_DOT = .395E-5
MEAN_MOTION_DDOT = 0

CCSDS_OMM_VERS = 2.0
CREATION_DATE  = 
ORIGINATOR     = 

OBJECT_NAME    = SL-16 R/B
OBJECT_ID      = 1988-102B
CENTER_NAME    = EARTH
REF_FRAME      = TEME
TIME_SYSTEM    = UTC
MEAN_ELEMENT_THEORY = SGP/SGP4

EPOCH          = 2026-01-16T22:01:11.631072
MEAN_MOTION    = 14.16144947
ECCENTRICITY   = .00119882
INCLINATION    = 70.9988
RA_OF_ASC_NODE = 260.4281
ARG_OF_PERICENTER = 89.8321
MEAN_ANOMALY   = 270.4176

EPHEMERIS_TYPE = 0
CLASSIFICATION_TYPE = U
NORAD_CAT_ID   = 19650
ELEMENT_SET_NO = 999
REV_AT_EPOCH   = 91956
BSTAR          = .16826653E-3
MEAN_MOTION_DOT = .285E-5
MEAN_MOTION_DDOT = 0

CCSDS_OMM_VERS = 2.0
CREATION_DATE  = 
ORIGINATOR     = 

OBJECT_NAME    = INTERCOSMOS 24
OBJECT_ID      = 1989-080A
CENTER_NAME    = EARTH
REF_FRAME      = TEME
TIME_SYSTEM    = UTC
MEAN_ELEMENT_THEORY = SGP/SGP4

EPOCH          = 2026-01-16T16:44:29.441472
MEAN_MOTION    = 12.59487793
ECCENTRICITY   = .11889567
INCLINATION    = 82.6079
RA_OF_ASC_NODE = 138.2293
ARG_OF_PERICENTER = 53.4704
MEAN_ANOMALY   = 317.0048

EPHEMERIS_TYPE = 0
CLASSIFICATION_TYPE = U
NORAD_CAT_ID   = 20261
ELEMENT_SET_NO = 999
REV_AT_EPOCH   = 66025
BSTAR          = .70913684E-4
MEAN_MOTION_DOT = .269E-5
MEAN_MOTION_DDOT = 0

CCSDS_OMM_VERS = 2.0
CREATION_DATE  = 
ORIGINATOR     = 

OBJECT_NAME    = SL-14 R/B
OBJECT_ID      = 1989-080C
CENTER_NAME    = EARTH
REF_FRAME      = TEME
TIME_SYSTEM    = UTC
MEAN_ELEMENT_THEORY = SGP/SGP4

EPOCH          = 2026-01-16T22:42:59.324544
MEAN_MOTION    = 12.50439387
ECCENTRICITY   = .12297043
INCLINATION    = 82.5915
RA_OF_ASC_NODE = 206.4118
ARG_OF_PERICENTER = 303.1098
MEAN_ANOMALY   = 45.7741

EPHEMERIS_TYPE = 0
CLASSIFICATION_TYPE = U
NORAD_CAT_ID   = 20262
ELEMENT_SET_NO = 999
REV_AT_EPOCH   = 65368
BSTAR          = .65786852E-4
MEAN_MOTION_DOT = .219E-5
MEAN_MOTION_DDOT = 0

CCSDS_OMM_VERS = 2.0
CREATION_DATE  = 
ORIGINATOR     = 

OBJECT_NAME    = DELTA 1 R/B
OBJECT_ID      = 1989-089B
CENTER_NAME    = EARTH
REF_FRAME      = TEME
TIME_SYSTEM    = UTC
MEAN_ELEMENT_THEORY = SGP/SGP4

EPOCH          = 2026-01-16T14:41:15.818496
MEAN_MOTION    = 14.50606907
ECCENTRICITY   = .00676427
INCLINATION    = 97.0734
RA_OF_ASC_NODE = 232.3206
ARG_OF_PERICENTER = 287.7196
MEAN_ANOMALY   = 71.6627

EPHEMERIS_TYPE = 0
CLASSIFICATION_TYPE = U
NORAD_CAT_ID   = 20323
ELEMENT_SET_NO = 999
REV_AT_EPOCH   = 88818
BSTAR          = .79013196E-4
MEAN_MOTION_DOT = .283E-5
MEAN_MOTION_DDOT = 0

CCSDS_OMM_VERS = 2.0
CREATION_DATE  = 
ORIGINATOR     = 

OBJECT_NAME    = ARIANE 40 R/B
OBJECT_ID      = 1990-005H
CENTER_NAME    = EARTH
REF_FRAME      = TEME
TIME_SYSTEM    = UTC
MEAN_ELEMENT_THEORY = SGP/SGP4

EPOCH          = 2026-01-16T21:40:24.194784
MEAN_MOTION    = 14.39827075
ECCENTRICITY   = .0010076
INCLINATION    = 98.3189
RA_OF_ASC_NODE = 79.0789
ARG_OF_PERICENTER = 7.4631
MEAN_ANOMALY   = 352.6705

EPHEMERIS_TYPE = 0
CLASSIFICATION_TYPE = U
NORAD_CAT_ID   = 20443
ELEMENT_SET_NO = 999
REV_AT_EPOCH   = 88535
BSTAR          = .81210682E-4
MEAN_MOTION_DOT = .213E-5
MEAN_MOTION_DDOT = 0

